OBJECT_NAME,OBJECT_ID,EPOCH,MEAN_MOTION,ECCENTRICITY,INCLINATION,RA_OF_ASC_NODE,ARG_OF_PERICENTER,MEAN_ANOMALY,EPHEMERIS_TYPE,CLASSIFICATION_TYPE,NORAD_CAT_ID,ELEMENT_SET_NO,REV_AT_EPOCH,BSTAR,MEAN_MOTION_DOT,MEAN_MOTION_DDOT
SL-12 R/B(2),1985-042D,2026-06-29T13:15:49.320288,14.22008073,.0036898,71.1063,211.3912,309.2612,162.2752,0,U,15772,999,13029,.44134E-4,.5E-6,0
SL-14 R/B,1985-069B,2026-06-29T08:28:06.843072,14.86524611,.0018813,82.5274,279.9247,177.7358,182.3948,0,U,15945,999,18942,.48101E-4,.451E-5,0
SL-16 R/B,1985-097B,2026-06-29T13:28:09.739776,14.16614410,.0005274,71.0034,265.0270,84.1951,13.2796,0,U,16182,999,10307,.64669E-4,.81E-6,0
SL-14 R/B,1986-006B,2026-06-29T10:24:15.130944,14.86956638,.0074699,82.5269,154.5887,262.0415,97.2320,0,U,16496,999,16581,.50835E-4,.504E-5,0
COSMOS 1743,1986-034A,2026-06-29T09:41:37.747104,15.68072810,.0004748,82.5281,315.7320,225.6542,134.4331,0,U,16719,999,19770,.40875E-3,.45539E-3,0
SL-14 R/B,1986-046B,2026-06-29T11:28:32.706048,14.85679724,.0022176,82.4824,334.5603,215.4706,144.5037,0,U,16792,999,14300,.47854E-4,.441E-5,0
SL-14 R/B,1986-055B,2026-06-29T12:53:36.317760,14.85730940,.0017977,82.5197,21.5205,326.1298,94.4323,0,U,16882,999,13597,.40299E-4,.375E-5,0
AJISAI (EGS),1986-061A,2026-06-29T12:32:54.283200,12.44516725,.0011149,50.0092,109.4629,211.9413,307.7143,0,U,16908,999,48192,-.75854E-4,-.108E-5,0
SL-14 R/B,1987-024B,2026-06-29T12:55:05.623392,14.86221466,.0016769,82.5282,347.6398,248.5542,111.3886,0,U,17567,999,10474,.46216E-4,.431E-5,0
COSMOS 1833,1987-027A,2026-06-29T05:07:09.086304,14.13058909,.0023254,70.9205,91.5913,35.0412,325.2234,0,U,17589,999,2607,.17224E-3,.274E-5,0
SL-16 R/B,1987-027B,2026-06-28T22:23:39.425280,14.17173745,.00068257,71.0034,42.0770,299.6870,60.3574,0,U,17590,999,3110,.13739416E-3,.229E-5,0
SL-14 R/B,1987-038B,2026-06-29T12:33:44.688096,14.85452281,.0019987,82.5003,191.4519,150.8955,209.3380,0,U,17912,999,9583,.39386E-4,.365E-5,0
COSMOS 1844,1987-041A,2026-06-29T08:10:30.209088,14.14569991,.003225,70.8971,158.6710,217.7430,142.1430,0,U,17973,999,1937,.16534E-3,.271E-5,0
SL-14 R/B,1987-055B,2026-06-29T13:09:07.741728,14.85718611,.0020722,82.4987,243.5773,8.1397,352.0151,0,U,18153,999,8654,.38012E-4,.355E-5,0
COSMOS 1867,1987-060A,2026-06-28T19:11:59.764992,14.31516938,.00167839,65.0117,355.5356,282.1265,77.7939,0,U,18187,999,3584,.14543236E-4,-.62E-6,0
SL-14 R/B,1988-001B,2026-06-29T03:31:20.922816,14.85617385,.001682,82.5134,90.5228,226.4470,133.5350,0,U,18749,999,5857,.41779E-4,.386E-5,0
COSMOS 1933,1988-020A,2026-06-29T10:10:36.020928,15.18792608,.0004874,82.5129,140.3170,147.7488,212.4045,0,U,18958,999,6718,.18841E-3,.3949E-4,0
SL-3 R/B,1988-032B,2026-06-29T13:06:57.715776,15.20926952,.0024847,97.5256,163.5753,199.7510,160.2766,0,U,19046,999,6910,.16707E-3,.3654E-4,0
SL-16 R/B,1988-039B,2026-06-29T10:50:29.165280,14.19630637,.0021516,71.0127,192.2243,174.5204,185.6161,0,U,19120,999,97424,-.22535E-4,-.96E-6,0
COSMOS 1953,1988-050A,2026-06-29T13:48:34.659360,15.30143648,.001243,82.5069,45.5408,88.7033,271.5632,0,U,19210,999,5488,.25316E-3,.7432E-4,0
SL-8 R/B,1988-053B,2026-06-29T12:39:40.917024,14.38972020,.0019273,74.0478,266.3104,57.0751,45.3355,0,U,19257,999,99268,.67841E-4,.183E-5,0
COSMOS 1975,1988-093A,2026-06-29T12:28:56.515584,15.29485400,.0012369,82.5185,5.2943,131.5092,228.7212,0,U,19573,999,3649,.25998E-3,.7479E-4,0
SL-14 R/B,1988-093B,2026-06-29T09:29:17.699136,14.85750570,.0021407,82.5320,297.1835,32.2468,28.9583,0,U,19574,999,1760,.44368E-4,.411E-5,0
SL-16 R/B,1988-102B,2026-06-29T12:10:51.010176,14.16168312,.0015158,71.0004,276.2153,208.1798,151.8507,0,U,19650,999,94272,.12093E-3,.192E-5,0
INTERCOSMOS 24,1989-080A,2026-06-29T13:33:26.146080,12.59678810,.1188009,82.6052,31.5903,33.2100,333.8133,0,U,20261,999,68088,.19154E-3,.673E-5,0
SL-14 R/B,1989-080C,2026-06-28T20:12:32.111712,12.50574910,.12283884,82.5943,101.8202,290.7237,56.6577,0,U,20262,999,67404,.38736225E-4,.129E-5,0
DELTA 1 R/B,1989-089B,2026-06-29T11:54:52.913664,14.50738800,.0070197,97.0633,10.0849,128.5376,232.2143,0,U,20323,999,91194,.85466E-4,.312E-5,0
ARIANE 40 R/B,1990-005H,2026-06-28T22:15:08.055648,14.39933173,.00092212,98.2955,237.1781,224.5708,135.4740,0,U,20443,999,90881,.87477328E-4,.233E-5,0
DELTA 2 R/B(1),1990-008B,2026-06-29T08:06:08.027424,15.70734051,.0064388,35.5988,154.2603,229.1522,130.3625,0,U,20453,999,94361,.58661E-3,.8617E-3,0
COSMOS 2058,1990-010A,2026-06-29T09:04:39.267264,15.12089056,.0008581,82.4697,297.3328,313.0171,47.0340,0,U,20465,999,95911,.15918E-3,.2769E-4,0
SL-14 R/B,1990-010B,2026-06-29T10:37:09.306048,14.83654014,.0018297,82.5021,162.4353,293.5462,66.3830,0,U,20466,999,94505,.44655E-4,.393E-5,0
