SL-12 R/B(2)            
1 15772U 85042D   26180.55265417  .00000050  00000+0  44134-4 0  9997
2 15772  71.1063 211.3912 0036898 309.2612 162.2752 14.22008073130295
SL-14 R/B               
1 15945U 85069B   26180.35285698  .00000451  00000+0  48101-4 0  9992
2 15945  82.5274 279.9247 0018813 177.7358 182.3948 14.86524611189420
SL-16 R/B               
1 16182U 85097B   26180.56122384  .00000081  00000+0  64669-4 0  9998
2 16182  71.0034 265.0270 0005274  84.1951  13.2796 14.16614410103070
SL-14 R/B               
1 16496U 86006B   26180.43350846  .00000504  00000+0  50835-4 0  9999
2 16496  82.5269 154.5887 0074699 262.0415  97.2320 14.86956638165813
COSMOS 1743             
1 16719U 86034A   26180.40390911  .00045539  00000+0  40875-3 0  9991
2 16719  82.5281 315.7320 0004748 225.6542 134.4331 15.68072810197703
SL-14 R/B               
1 16792U 86046B   26180.47815632  .00000441  00000+0  47854-4 0  9992
2 16792  82.4824 334.5603 0022176 215.4706 144.5037 14.85679724143007
SL-14 R/B               
1 16882U 86055B   26180.53722590  .00000375  00000+0  40299-4 0  9991
2 16882  82.5197  21.5205 0017977 326.1298  94.4323 14.85730940135977
AJISAI (EGS)            
1 16908U 86061A   26180.52285050 -.00000108  00000+0 -75854-4 0  9992
2 16908  50.0092 109.4629 0011149 211.9413 307.7143 12.44516725481926
SL-14 R/B               
1 17567U 87024B   26180.53825953  .00000431  00000+0  46216-4 0  9994
2 17567  82.5282 347.6398 0016769 248.5542 111.3886 14.86221466104748
COSMOS 1833             
1 17589U 87027A   26180.21329961  .00000274  00000+0  17224-3 0  9995
2 17589  70.9205  91.5913 0023254  35.0412 325.2234 14.13058909 26070
SL-16 R/B               
1 17590U 87027B   26179.93309520  .00000229  00000+0  13739-3 0  9990
2 17590  71.0034  42.0770 0006825 299.6870  60.3574 14.17173745 31101
SL-14 R/B               
1 17912U 87038B   26180.52343389  .00000365  00000+0  39386-4 0  9996
2 17912  82.5003 191.4519 0019987 150.8955 209.3380 14.85452281 95837
COSMOS 1844             
1 17973U 87041A   26180.34062742  .00000271  00000+0  16534-3 0  9993
2 17973  70.8971 158.6710 0032250 217.7430 142.1430 14.14569991 19379
SL-14 R/B               
1 18153U 87055B   26180.54800627  .00000355  00000+0  38012-4 0  9992
2 18153  82.4987 243.5773 0020722   8.1397 352.0151 14.85718611 86542
COSMOS 1867             
1 18187U 87060A   26179.79999728 -.00000062  00000+0  14543-4 0  9990
2 18187  65.0117 355.5356 0016783 282.1265  77.7939 14.31516938 35843
SL-14 R/B               
1 18749U 88001B   26180.14676994  .00000386  00000+0  41779-4 0  9997
2 18749  82.5134  90.5228 0016820 226.4470 133.5350 14.85617385 58575
COSMOS 1933             
1 18958U 88020A   26180.42402802  .00003949  00000+0  18841-3 0  9997
2 18958  82.5129 140.3170 0004874 147.7488 212.4045 15.18792608 67185
SL-3 R/B                
1 19046U 88032B   26180.54650134  .00003654  00000+0  16707-3 0  9997
2 19046  97.5256 163.5753 0024847 199.7510 160.2766 15.20926952 69108
SL-16 R/B               
1 19120U 88039B   26180.45172645 -.00000096  00000+0 -22535-4 0  9999
2 19120  71.0127 192.2243 0021516 174.5204 185.6161 14.19630637974248
COSMOS 1953             
1 19210U 88050A   26180.57540115  .00007432  00000+0  25316-3 0  9994
2 19210  82.5069  45.5408 0012430  88.7033 271.5632 15.30143648 54886
SL-8 R/B                
1 19257U 88053B   26180.52755691  .00000183  00000+0  67841-4 0  9996
2 19257  74.0478 266.3104 0019273  57.0751  45.3355 14.38972020992680
COSMOS 1975             
1 19573U 88093A   26180.52009856  .00007479  00000+0  25998-3 0  9997
2 19573  82.5185   5.2943 0012369 131.5092 228.7212 15.29485400 36495
SL-14 R/B               
1 19574U 88093B   26180.39534374  .00000411  00000+0  44368-4 0  9993
2 19574  82.5320 297.1835 0021407  32.2468  28.9583 14.85750570 17603
SL-16 R/B               
1 19650U 88102B   26180.50753484  .00000192  00000+0  12093-3 0  9992
2 19650  71.0004 276.2153 0015158 208.1798 151.8507 14.16168312942720
INTERCOSMOS 24          
1 20261U 89080A   26180.56488595  .00000673  00000+0  19154-3 0  9991
2 20261  82.6052  31.5903 1188009  33.2100 333.8133 12.59678810680884
SL-14 R/B               
1 20262U 89080C   26179.84203833  .00000129  00000+0  38736-4 0  9995
2 20262  82.5943 101.8202 1228388 290.7237  56.6577 12.50574910674042
DELTA 1 R/B             
1 20323U 89089B   26180.49644576  .00000312  00000+0  85466-4 0  9994
2 20323  97.0633  10.0849 0070197 128.5376 232.2143 14.50738800911945
ARIANE 40 R/B           
1 20443U 90005H   26179.92717657  .00000233  00000+0  87477-4 0  9990
2 20443  98.2955 237.1781 0009221 224.5708 135.4740 14.39933173908817
DELTA 2 R/B(1)          
1 20453U 90008B   26180.33759291  .00086170  00000+0  58661-3 0  9997
2 20453  35.5988 154.2603 0064388 229.1522 130.3625 15.70734051943613
COSMOS 2058             
1 20465U 90010A   26180.37823226  .00002769  00000+0  15918-3 0  9997
2 20465  82.4697 297.3328 0008581 313.0171  47.0340 15.12089056959117
SL-14 R/B               
1 20466U 90010B   26180.44246882  .00000393  00000+0  44655-4 0  9995
2 20466  82.5021 162.4353 0018297 293.5462  66.3830 14.83654014945055
